IRIDIUM 166             
1 43570U 18061B   24212.42396417  .00000364  00000+0  12277-3 0  9996
2 43570  86.4002 343.7400 0002381  88.3045 271.8424 14.34217788314960
IRIDIUM 158             
1 43571U 18061C   24212.81086193  .00000037  00000+0  60209-5 0  9994
2 43571  86.4003 343.5878 0002104  91.8630 268.2807 14.34216880314991
IRIDIUM 165             
1 43572U 18061D   24212.83623235  .00001023  00000+0  35804-3 0  9998
2 43572  86.4004 343.6106 0002104  90.2115 269.9321 14.34218942315013
IRIDIUM 155             
1 43573U 18061E   24212.79817755  .00000151  00000+0  46844-4 0  9994
2 43573  86.4001 343.5295 0002350  88.7421 271.4044 14.34217028314983
IRIDIUM 154             
1 43574U 18061F   24211.80238906  .00000233  00000+0  76113-4 0  9994
2 43574  86.4004 344.0451 0002180  99.4110 260.7332 14.34218292314886
IRIDIUM 163             
1 43575U 18061G   24212.89965799  .00000218  00000+0  70848-4 0  9994
2 43575  86.4002 343.5236 0002189  96.5396 263.6049 14.34216899315017
IRIDIUM 156             
1 43576U 18061H   24212.38590817  .00000153  00000+0  47662-4 0  9990
2 43576  86.4003 343.7449 0002114  89.7858 270.3580 14.34218352314933
IRIDIUM 164             
1 43577U 18061J   24212.71572273  .00000297  00000+0  98902-4 0  9996
2 43577  86.4002 343.6363 0001859  95.9812 264.1595 14.34217105315024
